CCSDS_OMM_VERS = 2.0
CREATION_DATE  = 
ORIGINATOR     = 

OBJECT_NAME    = ATLAS CENTAUR R/B
OBJECT_ID      = 1972-065B
CENTER_NAME    = EARTH
REF_FRAME      = TEME
TIME_SYSTEM    = UTC
MEAN_ELEMENT_THEORY = SGP/SGP4

EPOCH          = 2025-12-31T00:59:00.475872
MEAN_MOTION    = 14.77464689
ECCENTRICITY   = .0033565
INCLINATION    = 35.0029
RA_OF_ASC_NODE = 347.9909
ARG_OF_PERICENTER = 153.8062
MEAN_ANOMALY   = 206.4343

EPHEMERIS_TYPE = 0
CLASSIFICATION_TYPE = U
NORAD_CAT_ID   = 6155
ELEMENT_SET_NO = 999
REV_AT_EPOCH   = 83110
BSTAR          = .31095E-3
MEAN_MOTION_DOT = .225E-4
MEAN_MOTION_DDOT = 0

CCSDS_OMM_VERS = 2.0
CREATION_DATE  = 
ORIGINATOR     = 

OBJECT_NAME    = SL-8 R/B
OBJECT_ID      = 1975-112B
CENTER_NAME    = EARTH
REF_FRAME      = TEME
TIME_SYSTEM    = UTC
MEAN_ELEMENT_THEORY = SGP/SGP4

EPOCH          = 2025-12-30T20:19:46.562880
MEAN_MOTION    = 14.38159035
ECCENTRICITY   = .001671
INCLINATION    = 74.0604
RA_OF_ASC_NODE = 145.5519
ARG_OF_PERICENTER = 255.1809
MEAN_ANOMALY   = 104.7494

EPHEMERIS_TYPE = 0
CLASSIFICATION_TYPE = U
NORAD_CAT_ID   = 8459
ELEMENT_SET_NO = 999
REV_AT_EPOCH   = 62197
BSTAR          = .18063E-3
MEAN_MOTION_DOT = .523E-5
MEAN_MOTION_DDOT = 0

CCSDS_OMM_VERS = 2.0
CREATION_DATE  = 
ORIGINATOR     = 

OBJECT_NAME    = SL-3 R/B
OBJECT_ID      = 1977-057B
CENTER_NAME    = EARTH
REF_FRAME      = TEME
TIME_SYSTEM    = UTC
MEAN_ELEMENT_THEORY = SGP/SGP4

EPOCH          = 2025-12-31T04:07:14.962080
MEAN_MOTION    = 15.43438008
ECCENTRICITY   = .0007698
INCLINATION    = 97.5687
RA_OF_ASC_NODE = 169.2242
ARG_OF_PERICENTER = 161.9968
MEAN_ANOMALY   = 198.1553

EPHEMERIS_TYPE = 0
CLASSIFICATION_TYPE = U
NORAD_CAT_ID   = 10114
ELEMENT_SET_NO = 999
REV_AT_EPOCH   = 65775
BSTAR          = .44222E-3
MEAN_MOTION_DOT = .19731E-3
MEAN_MOTION_DDOT = 0

CCSDS_OMM_VERS = 2.0
CREATION_DATE  = 
ORIGINATOR     = 

OBJECT_NAME    = SEASAT 1
OBJECT_ID      = 1978-064A
CENTER_NAME    = EARTH
REF_FRAME      = TEME
TIME_SYSTEM    = UTC
MEAN_ELEMENT_THEORY = SGP/SGP4

EPOCH          = 2025-12-30T21:01:00.105024
MEAN_MOTION    = 14.46084347
ECCENTRICITY   = .0001258
INCLINATION    = 108.0141
RA_OF_ASC_NODE = 341.0855
ARG_OF_PERICENTER = 259.3938
MEAN_ANOMALY   = 100.7066

EPHEMERIS_TYPE = 0
CLASSIFICATION_TYPE = U
NORAD_CAT_ID   = 10967
ELEMENT_SET_NO = 999
REV_AT_EPOCH   = 49656
BSTAR          = .26471E-3
MEAN_MOTION_DOT = .809E-5
MEAN_MOTION_DDOT = 0

CCSDS_OMM_VERS = 2.0
CREATION_DATE  = 
ORIGINATOR     = 

OBJECT_NAME    = SL-14 R/B
OBJECT_ID      = 1979-011B
CENTER_NAME    = EARTH
REF_FRAME      = TEME
TIME_SYSTEM    = UTC
MEAN_ELEMENT_THEORY = SGP/SGP4

EPOCH          = 2025-12-30T23:10:21.170784
MEAN_MOTION    = 14.91797218
ECCENTRICITY   = .0014699
INCLINATION    = 82.5242
RA_OF_ASC_NODE = 161.7583
ARG_OF_PERICENTER = 289.0799
MEAN_ANOMALY   = 70.8829

EPHEMERIS_TYPE = 0
CLASSIFICATION_TYPE = U
NORAD_CAT_ID   = 11267
ELEMENT_SET_NO = 999
REV_AT_EPOCH   = 51853
BSTAR          = .12018E-3
MEAN_MOTION_DOT = .1238E-4
MEAN_MOTION_DDOT = 0

CCSDS_OMM_VERS = 2.0
CREATION_DATE  = 
ORIGINATOR     = 

OBJECT_NAME    = SL-8 R/B
OBJECT_ID      = 1979-089B
CENTER_NAME    = EARTH
REF_FRAME      = TEME
TIME_SYSTEM    = UTC
MEAN_ELEMENT_THEORY = SGP/SGP4

EPOCH          = 2025-12-31T00:13:15.418272
MEAN_MOTION    = 14.42295796
ECCENTRICITY   = .0014889
INCLINATION    = 74.0671
RA_OF_ASC_NODE = 218.1661
ARG_OF_PERICENTER = 45.1524
MEAN_ANOMALY   = 315.0839

EPHEMERIS_TYPE = 0
CLASSIFICATION_TYPE = U
NORAD_CAT_ID   = 11574
ELEMENT_SET_NO = 999
REV_AT_EPOCH   = 42620
BSTAR          = .12912E-3
MEAN_MOTION_DOT = .4E-5
MEAN_MOTION_DDOT = 0

CCSDS_OMM_VERS = 2.0
CREATION_DATE  = 
ORIGINATOR     = 

OBJECT_NAME    = SL-14 R/B
OBJECT_ID      = 1980-005B
CENTER_NAME    = EARTH
REF_FRAME      = TEME
TIME_SYSTEM    = UTC
MEAN_ELEMENT_THEORY = SGP/SGP4

EPOCH          = 2025-12-31T01:37:29.710272
MEAN_MOTION    = 14.90817225
ECCENTRICITY   = .0016726
INCLINATION    = 82.5139
RA_OF_ASC_NODE = 12.3149
ARG_OF_PERICENTER = 37.1168
MEAN_ANOMALY   = 323.1204

EPHEMERIS_TYPE = 0
CLASSIFICATION_TYPE = U
NORAD_CAT_ID   = 11672
ELEMENT_SET_NO = 999
REV_AT_EPOCH   = 46626
BSTAR          = .11211E-3
MEAN_MOTION_DOT = .1131E-4
MEAN_MOTION_DDOT = 0

CCSDS_OMM_VERS = 2.0
CREATION_DATE  = 
ORIGINATOR     = 

OBJECT_NAME    = SL-8 R/B
OBJECT_ID      = 1981-003B
CENTER_NAME    = EARTH
REF_FRAME      = TEME
TIME_SYSTEM    = UTC
MEAN_ELEMENT_THEORY = SGP/SGP4

EPOCH          = 2025-12-30T23:50:49.451424
MEAN_MOTION    = 15.07685785
ECCENTRICITY   = .0276375
INCLINATION    = 82.9358
RA_OF_ASC_NODE = 353.4071
ARG_OF_PERICENTER = 57.6413
MEAN_ANOMALY   = 305.1244

EPHEMERIS_TYPE = 0
CLASSIFICATION_TYPE = U
NORAD_CAT_ID   = 12139
ELEMENT_SET_NO = 999
REV_AT_EPOCH   = 30431
BSTAR          = .78277E-3
MEAN_MOTION_DOT = .29616E-3
MEAN_MOTION_DDOT = 0

CCSDS_OMM_VERS = 2.0
CREATION_DATE  = 
ORIGINATOR     = 

OBJECT_NAME    = SL-3 R/B
OBJECT_ID      = 1981-046B
CENTER_NAME    = EARTH
REF_FRAME      = TEME
TIME_SYSTEM    = UTC
MEAN_ELEMENT_THEORY = SGP/SGP4

EPOCH          = 2025-12-31T03:35:52.649952
MEAN_MOTION    = 15.40038349
ECCENTRICITY   = .0017979
INCLINATION    = 81.2320
RA_OF_ASC_NODE = 11.9066
ARG_OF_PERICENTER = 256.3490
MEAN_ANOMALY   = 103.5750

EPHEMERIS_TYPE = 0
CLASSIFICATION_TYPE = U
NORAD_CAT_ID   = 12465
ELEMENT_SET_NO = 999
REV_AT_EPOCH   = 42787
BSTAR          = .44913E-3
MEAN_MOTION_DOT = .18087E-3
MEAN_MOTION_DDOT = 0

CCSDS_OMM_VERS = 2.0
CREATION_DATE  = 
ORIGINATOR     = 

OBJECT_NAME    = SL-3 R/B
OBJECT_ID      = 1981-103B
CENTER_NAME    = EARTH
REF_FRAME      = TEME
TIME_SYSTEM    = UTC
MEAN_ELEMENT_THEORY = SGP/SGP4

EPOCH          = 2025-12-31T02:07:09.959808
MEAN_MOTION    = 15.20477545
ECCENTRICITY   = .0013426
INCLINATION    = 81.1599
RA_OF_ASC_NODE = 293.8621
ARG_OF_PERICENTER = 149.5934
MEAN_ANOMALY   = 210.6079

EPHEMERIS_TYPE = 0
CLASSIFICATION_TYPE = U
NORAD_CAT_ID   = 12904
ELEMENT_SET_NO = 999
REV_AT_EPOCH   = 96280
BSTAR          = .50471E-3
MEAN_MOTION_DOT = .11077E-3
MEAN_MOTION_DDOT = 0

CCSDS_OMM_VERS = 2.0
CREATION_DATE  = 
ORIGINATOR     = 

OBJECT_NAME    = SL-3 R/B
OBJECT_ID      = 1982-013B
CENTER_NAME    = EARTH
REF_FRAME      = TEME
TIME_SYSTEM    = UTC
MEAN_ELEMENT_THEORY = SGP/SGP4

EPOCH          = 2025-12-31T03:03:32.169888
MEAN_MOTION    = 15.21266311
ECCENTRICITY   = .0023783
INCLINATION    = 81.1746
RA_OF_ASC_NODE = 241.0849
ARG_OF_PERICENTER = 52.0781
MEAN_ANOMALY   = 308.2596

EPHEMERIS_TYPE = 0
CLASSIFICATION_TYPE = U
NORAD_CAT_ID   = 13068
ELEMENT_SET_NO = 999
REV_AT_EPOCH   = 39392
BSTAR          = .32536E-3
MEAN_MOTION_DOT = .7352E-4
MEAN_MOTION_DDOT = 0

CCSDS_OMM_VERS = 2.0
CREATION_DATE  = 
ORIGINATOR     = 

OBJECT_NAME    = SL-3 R/B
OBJECT_ID      = 1982-039B
CENTER_NAME    = EARTH
REF_FRAME      = TEME
TIME_SYSTEM    = UTC
MEAN_ELEMENT_THEORY = SGP/SGP4

EPOCH          = 2025-12-31T01:35:29.046624
MEAN_MOTION    = 15.09646610
ECCENTRICITY   = .002951
INCLINATION    = 81.1701
RA_OF_ASC_NODE = 295.0110
ARG_OF_PERICENTER = 189.9952
MEAN_ANOMALY   = 170.0690

EPHEMERIS_TYPE = 0
CLASSIFICATION_TYPE = U
NORAD_CAT_ID   = 13154
ELEMENT_SET_NO = 999
REV_AT_EPOCH   = 37128
BSTAR          = .3385E-3
MEAN_MOTION_DOT = .5524E-4
MEAN_MOTION_DDOT = 0

