ATLAS CENTAUR R/B       
1 06155U 72065B   25365.04097773  .00002250  00000+0  31095-3 0  9994
2 06155  35.0029 347.9909 0033565 153.8062 206.4343 14.77464689831107
SL-8 R/B                
1 08459U 75112B   25364.84706670  .00000523  00000+0  18063-3 0  9990
2 08459  74.0604 145.5519 0016710 255.1809 104.7494 14.38159035621977
SL-3 R/B                
1 10114U 77057B   25365.17170095  .00019731  00000+0  44222-3 0  9991
2 10114  97.5687 169.2242 0007698 161.9968 198.1553 15.43438008657755
SEASAT 1                
1 10967U 78064A   25364.87569566  .00000809  00000+0  26471-3 0  9999
2 10967 108.0141 341.0855 0001258 259.3938 100.7066 14.46084347496562
SL-14 R/B               
1 11267U 79011B   25364.96552281  .00001238  00000+0  12018-3 0  9991
2 11267  82.5242 161.7583 0014699 289.0799  70.8829 14.91797218518531
SL-8 R/B                
1 11574U 79089B   25365.00920623  .00000400  00000+0  12912-3 0  9995
2 11574  74.0671 218.1661 0014889  45.1524 315.0839 14.42295796426203
SL-14 R/B               
1 11672U 80005B   25365.06770498  .00001131  00000+0  11211-3 0  9996
2 11672  82.5139  12.3149 0016726  37.1168 323.1204 14.90817225466263
SL-8 R/B                
1 12139U 81003B   25364.99362791  .00029616  00000+0  78277-3 0  9991
2 12139  82.9358 353.4071 0276375  57.6413 305.1244 15.07685785304314
SL-3 R/B                
1 12465U 81046B   25365.14991493  .00018087  00000+0  44913-3 0  9995
2 12465  81.2320  11.9066 0017979 256.3490 103.5750 15.40038349427877
SL-3 R/B                
1 12904U 81103B   25365.08830972  .00011077  00000+0  50471-3 0  9992
2 12904  81.1599 293.8621 0013426 149.5934 210.6079 15.20477545962803
SL-3 R/B                
1 13068U 82013B   25365.12745567  .00007352  00000+0  32536-3 0  9998
2 13068  81.1746 241.0849 0023783  52.0781 308.2596 15.21266311393928
SL-3 R/B                
1 13154U 82039B   25365.06630841  .00005524  00000+0  33850-3 0  9992
2 13154  81.1701 295.0110 0029510 189.9952 170.0690 15.09646610371284
